OBJECT_NAME,OBJECT_ID,EPOCH,MEAN_MOTION,ECCENTRICITY,INCLINATION,RA_OF_ASC_NODE,ARG_OF_PERICENTER,MEAN_ANOMALY,EPHEMERIS_TYPE,CLASSIFICATION_TYPE,NORAD_CAT_ID,ELEMENT_SET_NO,REV_AT_EPOCH,BSTAR,MEAN_MOTION_DOT,MEAN_MOTION_DDOT
STARLINK-3765,2022-041AL,2026-06-23T20:57:59.023584,15.08832430,.00014096,53.1613,342.3034,98.7676,261.3475,0,U,52295,999,23053,.2046575E-5,-.255E-5,0
STARLINK-3766,2022-041AM,2026-06-25T04:13:54.340032,15.08825643,.0001542,53.1569,336.4507,88.0273,272.0895,0,U,52296,999,23073,-.47092E-4,-.1037E-4,0
STARLINK-3758,2022-041AN,2026-06-24T04:49:36.782688,15.08834503,.00013935,53.1610,340.8319,89.8503,270.2649,0,U,52297,999,23058,.62091271E-4,.7E-5,0
STARLINK-3760,2022-041AP,2026-06-24T20:53:59.995392,15.08833354,.0001281,53.1600,337.4360,70.7022,289.4108,0,U,52298,999,23069,.12052E-3,.163E-4,0
STARLINK-3769,2022-041AR,2026-06-25T03:58:00.170400,15.08835977,.0001007,53.1614,336.4988,92.7362,267.3744,0,U,52300,999,23195,.59581E-4,.66E-5,0
STARLINK-3768,2022-041AS,2026-06-25T04:24:30.160224,15.08833693,.0001437,53.1581,336.4154,86.8229,273.2927,0,U,52301,999,23073,-.10254E-4,-.451E-5,0
STARLINK-3564,2022-041AT,2026-06-25T04:00:00.999072,15.21855025,.0000994,53.1594,326.0942,127.7360,141.5780,0,U,52302,999,584,.46678E-1,.1168798E-1,0
STARLINK-3742,2022-041AU,2026-06-25T04:03:18.073152,15.08838774,.0001375,53.1618,336.4834,84.8268,275.2880,0,U,52303,999,23195,.37244E-4,.305E-5,0
STARLINK-3744,2022-041AV,2026-06-24T03:47:20.882976,15.08835250,.00011616,53.1612,331.0285,87.7547,272.3578,0,U,52304,999,23071,.36548517E-4,.294E-5,0
STARLINK-3724,2022-041AW,2026-06-25T04:08:38.679360,15.08839055,.0001042,53.1587,336.5721,94.5605,265.5505,0,U,52305,999,23073,.10732E-3,.142E-4,0
STARLINK-3747,2022-041AX,2026-06-25T03:32:49.577856,15.08840396,.0001185,53.1596,326.5767,90.0109,270.1018,0,U,52306,999,23208,.80847E-4,.999E-5,0
STARLINK-3755,2022-041AY,2026-06-25T03:52:42.458592,15.08833933,.0001226,53.1589,336.5150,90.3243,269.7889,0,U,52307,999,23073,.30589E-4,.199E-5,0
STARLINK-3756,2022-041BA,2026-06-25T04:00:00.999072,15.22145262,.0000541,53.1611,326.0816,118.8876,215.7971,0,U,52309,999,583,.48788E-1,.1238411E-1,0
STARLINK-3688,2022-041BB,2026-06-25T04:00:00.999072,15.22694520,.0000733,53.1609,326.1196,77.6946,291.7076,0,U,52310,999,579,.48666E-1,.1257057E-1,0
STARLINK-3750,2022-041BC,2026-06-24T03:26:09.317760,15.08838287,.0001243,53.1608,331.0935,87.2168,272.8966,0,U,52311,999,23193,-.794875E-5,-.414E-5,0
STARLINK-3752,2022-041BD,2026-06-24T04:03:14.134176,15.08835939,.00011732,53.1600,330.9281,90.1362,269.9763,0,U,52312,999,23194,-.23921158E-4,-.669E-5,0
STARLINK-3749,2022-041BE,2026-06-24T04:08:32.843904,15.08825298,.00013641,53.1597,330.9597,92.9813,267.1335,0,U,52313,999,23194,-.66494581E-4,-.1346E-4,0
STARLINK-3889,2022-045A,2026-06-25T00:32:40.391808,15.08835476,.0000986,53.1605,87.1452,57.7536,302.3551,0,U,52331,999,23184,.16539E-3,.2345E-4,0
STARLINK-3831,2022-045B,2026-06-24T23:14:32.870400,15.08828779,.0001577,53.1608,87.3986,89.2689,270.8484,0,U,52332,999,23183,.1117E-3,.149E-4,0
STARLINK-3847,2022-045C,2026-06-25T04:00:00.999072,15.20250911,.0001114,53.1599,86.1865,89.3936,93.4952,0,U,52333,999,584,.36361E-1,.858869E-2,0
STARLINK-3880,2022-045D,2026-06-25T00:27:21.589632,15.08835595,.0001389,53.1603,87.1596,109.6529,250.4612,0,U,52334,999,23183,.10235E-4,-.125E-5,0
STARLINK-3814,2022-045E,2026-06-25T00:22:03.590112,15.08841674,.0001411,53.1598,87.1749,106.7685,253.3461,0,U,52335,999,23184,-.15844E-3,-.2809E-4,0
STARLINK-3823,2022-045F,2026-06-25T04:00:00.999072,15.25308205,.0000691,53.1594,85.4931,109.4382,184.3668,0,U,52336,999,573,.49037E-2,.126952E-2,0
STARLINK-3797,2022-045G,2026-06-25T00:37:57.484128,15.08835390,.0001431,53.1613,87.1275,89.2436,270.8720,0,U,52337,999,23184,.17323E-4,-.12E-6,0
STARLINK-3792,2022-045J,2026-06-25T00:48:29.500128,15.08835497,.0001316,53.1618,86.7375,85.8276,274.2865,0,U,52339,999,23185,.34029E-4,.254E-5,0
STARLINK-3818,2022-045K,2026-06-24T07:11:29.789376,15.10764066,.00013381,53.1607,80.3646,27.7462,332.3602,0,U,52340,999,23186,.8709164E-2,.148946E-2,0
STARLINK-3843,2022-045L,2026-06-25T01:36:14.138784,15.08838877,.0001417,53.1616,86.8980,90.6500,269.4654,0,U,52341,999,23185,.82328E-4,.1022E-4,0
STARLINK-3850,2022-045M,2026-06-25T00:49:54.415776,15.08831635,.000121,53.1607,77.2052,84.7743,275.3386,0,U,52342,999,23198,.25125E-4,.112E-5,0
STARLINK-3849,2022-045N,2026-06-24T23:18:28.536768,15.08830016,.0001263,53.1616,87.3776,83.0631,277.0504,0,U,52343,999,23184,-.14335E-4,-.516E-5,0
STARLINK-3851,2022-045P,2026-06-24T22:58:36.842304,15.08831950,.0001252,53.1608,77.5057,89.3773,270.7361,0,U,52344,999,23197,-.57116E-5,-.379E-5,0
