STARLINK-3765           
1 52295U 22041AL  26174.87359981 -.00000255  00000+0  20466-5 0  9997
2 52295  53.1613 342.3034 0001409  98.7676 261.3475 15.08832430230535
STARLINK-3766           
1 52296U 22041AM  26176.17632338 -.00001037  00000+0 -47092-4 0  9996
2 52296  53.1569 336.4507 0001542  88.0273 272.0895 15.08825643230733
STARLINK-3758           
1 52297U 22041AN  26175.20112017  .00000700  00000+0  62091-4 0  9997
2 52297  53.1610 340.8319 0001393  89.8503 270.2649 15.08834503230585
STARLINK-3760           
1 52298U 22041AP  26175.87083328  .00001630  00000+0  12052-3 0  9997
2 52298  53.1600 337.4360 0001281  70.7022 289.4108 15.08833354230691
STARLINK-3769           
1 52300U 22041AR  26176.16527975  .00000660  00000+0  59581-4 0  9996
2 52300  53.1614 336.4988 0001007  92.7362 267.3744 15.08835977231956
STARLINK-3768           
1 52301U 22041AS  26176.18368241 -.00000451  00000+0 -10254-4 0  9992
2 52301  53.1581 336.4154 0001437  86.8229 273.2927 15.08833693230735
STARLINK-3564           
1 52302U 22041AT  26176.16667823  .01168798  00000+0  46678-1 0  9993
2 52302  53.1594 326.0942 0000994 127.7360 141.5780 15.21855025  5842
STARLINK-3742           
1 52303U 22041AU  26176.16895918  .00000305  00000+0  37244-4 0  9992
2 52303  53.1618 336.4834 0001375  84.8268 275.2880 15.08838774231955
STARLINK-3744           
1 52304U 22041AV  26175.15788059  .00000294  00000+0  36549-4 0  9992
2 52304  53.1612 331.0285 0001161  87.7547 272.3578 15.08835250230717
STARLINK-3724           
1 52305U 22041AW  26176.17266990  .00001420  00000+0  10732-3 0  9998
2 52305  53.1587 336.5721 0001042  94.5605 265.5505 15.08839055230736
STARLINK-3747           
1 52306U 22041AX  26176.14779604  .00000999  00000+0  80847-4 0  9992
2 52306  53.1596 326.5767 0001185  90.0109 270.1018 15.08840396232085
STARLINK-3755           
1 52307U 22041AY  26176.16160253  .00000199  00000+0  30589-4 0  9999
2 52307  53.1589 336.5150 0001226  90.3243 269.7889 15.08833933230732
STARLINK-3756           
1 52309U 22041BA  26176.16667823  .01238411  00000+0  48788-1 0  9994
2 52309  53.1611 326.0816 0000541 118.8876 215.7971 15.22145262  5831
STARLINK-3688           
1 52310U 22041BB  26176.16667823  .01257057  00000+0  48666-1 0  9998
2 52310  53.1609 326.1196 0000733  77.6946 291.7076 15.22694520  5796
STARLINK-3750           
1 52311U 22041BC  26175.14316340 -.00000414  00000+0 -79488-5 0  9995
2 52311  53.1608 331.0935 0001243  87.2168 272.8966 15.08838287231931
STARLINK-3752           
1 52312U 22041BD  26175.16891359 -.00000669  00000+0 -23921-4 0  9998
2 52312  53.1600 330.9281 0001173  90.1362 269.9763 15.08835939231941
STARLINK-3749           
1 52313U 22041BE  26175.17260236 -.00001346  00000+0 -66495-4 0  9990
2 52313  53.1597 330.9597 0001364  92.9813 267.1335 15.08825298231942
STARLINK-3889           
1 52331U 22045A   26176.02268972  .00002345  00000+0  16539-3 0  9995
2 52331  53.1605  87.1452 0000986  57.7536 302.3551 15.08835476231843
STARLINK-3831           
1 52332U 22045B   26175.96843600  .00001490  00000+0  11170-3 0  9991
2 52332  53.1608  87.3986 0001577  89.2689 270.8484 15.08828779231838
STARLINK-3847           
1 52333U 22045C   26176.16667823  .00858869  00000+0  36361-1 0  9993
2 52333  53.1599  86.1865 0001114  89.3936  93.4952 15.20250911  5844
STARLINK-3880           
1 52334U 22045D   26176.01899988 -.00000125  00000+0  10235-4 0  9997
2 52334  53.1603  87.1596 0001389 109.6529 250.4612 15.08835595231832
STARLINK-3814           
1 52335U 22045E   26176.01531933 -.00002809  00000+0 -15844-3 0  9993
2 52335  53.1598  87.1749 0001411 106.7685 253.3461 15.08841674231843
STARLINK-3823           
1 52336U 22045F   26176.16667823  .00126952  00000+0  49037-2 0  9992
2 52336  53.1594  85.4931 0000691 109.4382 184.3668 15.25308205  5733
STARLINK-3797           
1 52337U 22045G   26176.02635977 -.00000012  00000+0  17323-4 0  9997
2 52337  53.1613  87.1275 0001431  89.2436 270.8720 15.08835390231848
STARLINK-3792           
1 52339U 22045J   26176.03367477  .00000254  00000+0  34029-4 0  9996
2 52339  53.1618  86.7375 0001316  85.8276 274.2865 15.08835497231854
STARLINK-3818           
1 52340U 22045K   26175.29965034  .00148946  00000+0  87092-2 0  9995
2 52340  53.1607  80.3646 0001338  27.7462 332.3602 15.10764066231863
STARLINK-3843           
1 52341U 22045L   26176.06683031  .00001022  00000+0  82328-4 0  9998
2 52341  53.1616  86.8980 0001417  90.6500 269.4654 15.08838877231851
STARLINK-3850           
1 52342U 22045M   26176.03465759  .00000112  00000+0  25125-4 0  9992
2 52342  53.1607  77.2052 0001210  84.7743 275.3386 15.08831635231987
STARLINK-3849           
1 52343U 22045N   26175.97116362 -.00000516  00000+0 -14335-4 0  9999
2 52343  53.1616  87.3776 0001263  83.0631 277.0504 15.08830016231847
STARLINK-3851           
1 52344U 22045P   26175.95737086 -.00000379  00000+0 -57116-5 0  9992
2 52344  53.1608  77.5057 0001252  89.3773 270.7361 15.08831950231979
